NORAD_CAT_ID,OBJECT_NAME,OBJECT_TYPE,EPOCH,MEAN_MOTION,ECCENTRICITY,INCLINATION,RA_OF_ASC_NODE,ARG_OF_PERICENTER,MEAN_ANOMALY,BSTAR,MEAN_MOTION_DOT,MEAN_MOTION_DDOT,TLE_LINE0,TLE_LINE1,TLE_LINE2,SEMIMAJOR_AXIS,PERIOD,APOGEE,PERIGEE,DECAYED
52536.0,STARLINK-3964,PAYLOAD,2023-10-05 00:24:11,15.08863166,0.0001065,53.2167,149.5514,91.128,268.9835,0.00088619,0.00013853,0.0,0 STARLINK-3964,1 52536U 22051D   23278.01680425  .00013853  00000-0  88619-3 0  9994,2 52536  53.2167 149.5514 0001065  91.1280 268.9835 15.08863166 77581,6917.81,95.436,540.411,538.938,0.0
52536.0,STARLINK-3964,PAYLOAD,2023-10-05 21:04:13,15.08840286,0.0001273,53.2157,145.6843,85.1924,274.9214,0.00022994,3.374e-05,0.0,0 STARLINK-3964,1 52536U 22051D   23278.87792980  .00003374  00000-0  22994-3 0  9999,2 52536  53.2157 145.6843 0001273  85.1924 274.9214 15.08840286 77789,6917.88,95.438,540.625,538.864,0.0
52536.0,STARLINK-3964,PAYLOAD,2023-10-06 08:11:55,15.08838235,0.0001354,53.2155,143.6031,78.535,281.5795,0.00045236,6.918e-05,0.0,0 STARLINK-3964,1 52536U 22051D   23279.34161199  .00006918  00000-0  45236-3 0  9995,2 52536  53.2155 143.6031 0001354  78.5350 281.5795 15.08838235 77782,6917.886,95.438,540.687,538.814,0.0
52536.0,STARLINK-3964,PAYLOAD,2023-10-06 20:55:00,15.0882833,0.0001728,53.2164,141.224,80.92,279.1988,0.00035775,5.408e-05,0.0,0 STARLINK-3964,1 52536U 22051D   23279.87153843  .00005408  00000-0  35775-3 0  9990,2 52536  53.2164 141.2240 0001728  80.9200 279.1988 15.08828330 77933,6917.916,95.438,540.976,538.586,0.0
52536.0,STARLINK-3964,PAYLOAD,2023-10-07 00:05:47,15.08836408,0.0001589,53.2167,140.6277,81.3672,278.75,0.00015575,2.191e-05,0.0,0 STARLINK-3964,1 52536U 22051D   23280.00401706  .00002191  00000-0  15575-3 0  9993,2 52536  53.2167 140.6277 0001589  81.3672 278.7500 15.08836408 77886,6917.891,95.438,540.856,538.657,0.0
52536.0,STARLINK-3964,PAYLOAD,2023-10-07 20:45:47,15.08848551,0.000149,53.2164,136.7621,77.8951,282.2208,0.00041068,6.256e-05,0.0,0 STARLINK-3964,1 52536U 22051D   23280.86513482  .00006256  00000-0  41068-3 0  9994,2 52536  53.2164 136.7621 0001490  77.8951 282.2208 15.08848551 78083,6917.854,95.437,540.75,538.688,0.0
52536.0,STARLINK-3964,PAYLOAD,2023-10-08 07:53:28,15.08862904,0.0001269,53.2153,134.6812,88.0652,272.0486,0.00067163,0.00010424,0.0,0 STARLINK-3964,1 52536U 22051D   23281.32880750  .00010424  00000-0  67163-3 0  9997,2 52536  53.2153 134.6812 0001269  88.0652 272.0486 15.08862904 78157,6917.81,95.436,540.553,538.798,0.0
52536.0,STARLINK-3964,PAYLOAD,2023-10-08 19:01:10,15.08860179,0.000157,53.2153,132.5965,107.571,252.5454,0.00044388,6.787e-05,0.0,0 STARLINK-3964,1 52536U 22051D   23281.79248215  .00006787  00000-0  44388-3 0  9993,2 52536  53.2153 132.5965 0001570 107.5710 252.5454 15.08860179 78228,6917.819,95.436,540.77,538.598,0.0
52536.0,STARLINK-3964,PAYLOAD,2023-10-08 20:36:33,15.08862281,0.000154,53.2166,132.3009,91.4668,268.6501,0.00041125,6.267e-05,0.0,0 STARLINK-3964,1 52536U 22051D   23281.85872240  .00006267  00000-0  41125-3 0  9990,2 52536  53.2166 132.3009 0001540  91.4668 268.6501 15.08862281 78169,6917.812,95.436,540.743,538.612,0.0
52536.0,STARLINK-3964,PAYLOAD,2023-10-09 07:44:15,15.08846023,0.0001296,53.2175,130.2206,93.2653,266.8487,-5.2177e-05,-1.118e-05,0.0,0 STARLINK-3964,1 52536U 22051D   23282.32240344 -.00001118  00000-0 -52177-4 0  9999,2 52536  53.2175 130.2206 0001296  93.2653 266.8487 15.08846023 78302,6917.862,95.437,540.624,538.83,0.0
52536.0,STARLINK-3964,PAYLOAD,2023-10-09 14:05:48,15.08841256,0.0002108,53.2172,129.0308,102.5508,257.572,-0.00013204,-2.389e-05,0.0,0 STARLINK-3964,1 52536U 22051D   23282.58736792 -.00002389  00000-0 -13204-3 0  9992,2 52536  53.2172 129.0308 0002108 102.5508 257.5720 15.08841256 78270,6917.877,95.437,541.2,538.283,0.0
52536.0,STARLINK-3964,PAYLOAD,2023-10-09 20:27:21,15.0883576,0.0001696,53.217,127.8398,120.5703,239.5456,-0.00018188,-3.181e-05,0.0,0 STARLINK-3964,1 52536U 22051D   23282.85232738 -.00003181  00000-0 -18188-3 0  9990,2 52536  53.2170 127.8398 0001696 120.5703 239.5456 15.08835760 78382,6917.893,95.438,540.932,538.585,0.0
52536.0,STARLINK-3964,PAYLOAD,2023-10-10 13:56:36,15.08837276,0.0001519,53.2175,124.5719,105.8129,254.3031,0.00017664,2.524e-05,0.0,0 STARLINK-3964,1 52536U 22051D   23283.58097300  .00002524  00000-0  17664-3 0  9991,2 52536  53.2175 124.5719 0001519 105.8129 254.3031 15.08837276 78423,6917.889,95.438,540.805,538.703,0.0
52536.0,STARLINK-3964,PAYLOAD,2023-10-10 20:18:08,15.08841467,0.0001481,53.2165,123.384,97.2973,262.8187,0.00058808,9.084e-05,0.0,0 STARLINK-3964,1 52536U 22051D   23283.84593506  .00009084  00000-0  58808-3 0  9992,2 52536  53.2165 123.3840 0001481  97.2973 262.8187 15.08841467 78460,6917.876,95.437,540.765,538.716,0.0
52536.0,STARLINK-3964,PAYLOAD,2023-10-10 23:28:55,15.08846668,0.0001477,53.2163,122.7884,96.5712,263.5448,0.00074173,0.00011538,0.0,0 STARLINK-3964,1 52536U 22051D   23283.97841446  .00011538  00000-0  74173-3 0  9995,2 52536  53.2163 122.7884 0001477  96.5712 263.5448 15.08846668 78553,6917.86,95.437,540.747,538.703,0.0
52536.0,STARLINK-3964,PAYLOAD,2023-10-11 13:47:23,15.08838737,0.0001632,53.2167,120.111,99.1835,260.9342,0.00012103,1.639e-05,0.0,0 STARLINK-3964,1 52536U 22051D   23284.57457771  .00001639  00000-0  12103-3 0  9992,2 52536  53.2167 120.1110 0001632  99.1835 260.9342 15.08838737 78573,6917.884,95.438,540.878,538.62,0.0
52536.0,STARLINK-3964,PAYLOAD,2023-10-11 20:08:55,15.08841927,0.0001478,53.217,118.9233,97.5443,262.5717,0.00028123,4.191e-05,0.0,0 STARLINK-3964,1 52536U 22051D   23284.83953604  .00004191  00000-0  28123-3 0  9992,2 52536  53.2170 118.9233 0001478  97.5443 262.5717 15.08841927 78684,6917.874,95.437,540.762,538.717,0.0
52536.0,STARLINK-3964,PAYLOAD,2023-10-12 13:38:10,15.08843641,0.0001374,53.2162,115.6518,94.6826,265.4323,0.00014827,2.073e-05,0.0,0 STARLINK-3964,1 52536U 22051D   23285.56817503  .00002073  00000-0  14827-3 0  9993,2 52536  53.2162 115.6518 0001374  94.6826 265.4323 15.08843641 78728,6917.869,95.437,540.685,538.784,0.0
52536.0,STARLINK-3964,PAYLOAD,2023-10-12 19:59:42,15.08848683,0.0001351,53.2163,114.4627,96.6029,263.5117,0.00023248,3.415e-05,0.0,0 STARLINK-3964,1 52536U 22051D   23285.83313270  .00003415  00000-0  23248-3 0  9993,2 52536  53.2163 114.4627 0001351  96.6029 263.5117 15.08848683 78764,6917.854,95.437,540.653,538.784,0.0
52536.0,STARLINK-3964,PAYLOAD,2023-10-13 19:50:29,15.08847716,0.0001521,53.2168,110.0022,104.3068,255.8093,-9.6755e-05,-1.828e-05,0.0,0 STARLINK-3964,1 52536U 22051D   23286.82673210 -.00001828  00000-0 -96755-4 0  9998,2 52536  53.2168 110.0022 0001521 104.3068 255.8093 15.08847716 78986,6917.857,95.437,540.774,538.67,0.0
52536.0,STARLINK-3964,PAYLOAD,2023-10-14 19:41:17,15.08841825,0.0001518,53.2169,105.5409,93.5186,266.598,0.00013341,1.836e-05,0.0,0 STARLINK-3964,1 52536U 22051D   23287.82033728  .00001836  00000-0  13341-3 0  9999,2 52536  53.2169 105.5409 0001518  93.5186 266.5980 15.08841825 79138,6917.875,95.437,540.79,538.69,0.0
52536.0,STARLINK-3964,PAYLOAD,2023-10-14 21:16:40,15.08844742,0.0001502,53.2169,105.2432,92.2882,267.8282,0.00016957,2.412e-05,0.0,0 STARLINK-3964,1 52536U 22051D   23287.88657576  .00002412  00000-0  16957-3 0  9995,2 52536  53.2169 105.2432 0001502  92.2882 267.8282 15.08844742 79076,6917.866,95.437,540.77,538.692,0.0
52536.0,STARLINK-3964,PAYLOAD,2023-10-15 11:35:08,15.08834374,0.0001315,53.2164,102.5664,89.8443,270.2699,0.00014828,2.072e-05,0.0,0 STARLINK-3964,1 52536U 22051D   23288.48274116  .00002072  00000-0  14828-3 0  9994,2 52536  53.2164 102.5664 0001315  89.8443 270.2699 15.08834374 79233,6917.898,95.438,540.672,538.853,0.0
52536.0,STARLINK-3964,PAYLOAD,2023-10-15 17:56:41,15.0884158,0.0001355,53.2163,101.3762,89.1411,270.9736,0.00010531,1.389e-05,0.0,0 STARLINK-3964,1 52536U 22051D   23288.74769857  .00001389  00000-0  10531-3 0  9991,2 52536  53.2163 101.3762 0001355  89.1411 270.9736 15.08841580 79203,6917.876,95.437,540.678,538.803,0.0
52536.0,STARLINK-3964,PAYLOAD,2023-10-16 14:36:42,15.08842373,0.0001281,53.217,97.5106,86.7657,273.3481,4.2052e-05,3.81e-06,0.0,0 STARLINK-3964,1 52536U 22051D   23289.60882046  .00000381  00000-0  42052-4 0  9998,2 52536  53.2170  97.5106 0001281  86.7657 273.3481 15.08842373 79331,6917.873,95.437,540.624,538.852,0.0
52536.0,STARLINK-3964,PAYLOAD,2023-10-16 16:12:05,15.08843157,0.0001288,53.2172,97.2132,87.0441,273.0698,4.3988e-05,4.12e-06,0.0,0 STARLINK-3964,1 52536U 22051D   23289.67505968  .00000412  00000-0  43988-4 0  9994,2 52536  53.2172  97.2132 0001288  87.0441 273.0698 15.08843157 79418,6917.871,95.437,540.627,538.845,0.0
52536.0,STARLINK-3964,PAYLOAD,2023-10-16 20:58:14,15.08846609,0.0001291,53.2171,96.3208,89.4379,270.6761,5.2967e-05,5.55e-06,0.0,0 STARLINK-3964,1 52536U 22051D   23289.87377667  .00000555  00000-0  52967-4 0  9994,2 52536  53.2171  96.3208 0001291  89.4379 270.6761 15.08846609 79375,6917.86,95.437,540.618,538.832,0.0
52536.0,STARLINK-3964,PAYLOAD,2023-10-17 11:16:42,15.08839968,0.000132,53.2167,93.6441,93.6872,266.4271,8.2098e-05,1.019e-05,0.0,0 STARLINK-3964,1 52536U 22051D   23290.46994015  .00001019  00000-0  82098-4 0  9997,2 52536  53.2167  93.6441 0001320  93.6872 266.4271 15.08839968 79466,6917.88,95.438,540.659,538.832,0.0
52536.0,STARLINK-3964,PAYLOAD,2023-10-17 17:38:15,15.08842645,0.0001297,53.218,92.4555,88.5217,271.5924,0.00015002,2.101e-05,0.0,0 STARLINK-3964,1 52536U 22051D   23290.73489754  .00002101  00000-0  15002-3 0  9999,2 52536  53.2180  92.4555 0001297  88.5217 271.5924 15.08842645 79506,6917.872,95.437,540.635,538.84,0.0
52536.0,STARLINK-3964,PAYLOAD,2023-10-18 11:07:30,15.08837957,0.0001162,53.2166,89.1851,81.104,279.0084,7.4176e-05,8.93e-06,0.0,0 STARLINK-3964,1 52536U 22051D   23291.46354237  .00000893  00000-0  74176-4 0  9991,2 52536  53.2166  89.1851 0001162  81.1040 279.0084 15.08837957 79685,6917.887,95.438,540.555,538.948,0.0
